[{"OBJECT_NAME":"STARLINK-3576","OBJECT_ID":"2022-022AH","EPOCH":"2026-03-09T04:31:24.254688","MEAN_MOTION":15.08833975,"ECCENTRICITY":0.00014607,"INCLINATION":53.2199,"RA_OF_ASC_NODE":1.5536,"ARG_OF_PERICENTER":93.4769,"MEAN_ANOMALY":266.639,"EPHEMERIS_TYPE":0,"CLASSIFICATION_TYPE":"U","NORAD_CAT_ID":51883,"ELEMENT_SET_NO":999,"REV_AT_EPOCH":22316,"BSTAR":1.2565327e-5,"MEAN_MOTION_DOT":-8.8e-7,"MEAN_MOTION_DDOT":0},{"OBJECT_NAME":"OBJECT H","OBJECT_ID":"2025-292H","EPOCH":"2026-03-09T22:24:53.558208","MEAN_MOTION":15.06373042,"ECCENTRICITY":0.00142604,"INCLINATION":97.6442,"RA_OF_ASC_NODE":145.7846,"ARG_OF_PERICENTER":348.9217,"MEAN_ANOMALY":11.1694,"EPHEMERIS_TYPE":0,"CLASSIFICATION_TYPE":"U","NORAD_CAT_ID":67000,"ELEMENT_SET_NO":999,"REV_AT_EPOCH":1338,"BSTAR":0.0005462937,"MEAN_MOTION_DOT":8.001e-5,"MEAN_MOTION_DDOT":0}]
